{"type": "FeatureCollection", "features": [ {"type": "Feature", "properties": {"norad_id": 35121, "name": "FENGYUN 1C DEB", "group": "fengyun-1c-debris", "lat": 27.820313145684786, "lon": -140.93478005258729, "alt_km": 773.1263719492799, "timestamp": "2025-12-27T11:23:20.184888+00:00", "meta": {"OBJECT_NAME": "FENGYUN 1C DEB", "OBJECT_ID": "1999-025DKZ", "EPOCH": "2025-12-24T09:45:12.648096", "MEAN_MOTION": 14.04760226, "ECCENTRICITY": 0.01583792, "INCLINATION": 98.3006, "RA_OF_ASC_NODE": 220.6752, "ARG_OF_PERICENTER": 63.7329, "MEAN_ANOMALY": 298.0018, "EPHEMERIS_TYPE": 0, "CLASSIFICATION_TYPE": "U", "NORAD_CAT_ID": 35121, "ELEMENT_SET_NO": 999, "REV_AT_EPOCH": 61255, "BSTAR": 0.00033495737, "MEAN_MOTION_DOT": 5.63e-06, "MEAN_MOTION_DDOT": 0}, "tle": {"line1": "1 35121U 99025DKZ 25358.40639639  .00000563  00000+0  33496-3 0  9991", "line2": "2 35121  98.3006 220.6752 0158379  63.7329 298.0018 14.04760226612556"}}, "geometry": {"type": "Point", "coordinates": [-140.93478005258729, 27.820313145684786]}}, {"type": "Feature", "properties": {"norad_id": 35122, "name": "FENGYUN 1C DEB", "group": "fengyun-1c-debris", "lat": 80.91633051892055, "lon": -53.19453028141139, "alt_km": 821.5667924192012, "timestamp": "2025-12-27T11:23:20.184898+00:00", "meta": {"OBJECT_NAME": "FENGYUN 1C DEB", "OBJECT_ID": "1999-025DLA", "EPOCH": "2025-12-23T18:40:36.959520", "MEAN_MOTION": 14.14136172, "ECCENTRICITY": 0.00257053, "INCLINATION": 98.6712, "RA_OF_ASC_NODE": 15.8646, "ARG_OF_PERICENTER": 127.0383, "MEAN_ANOMALY": 233.3147, "EPHEMERIS_TYPE": 0, "CLASSIFICATION_TYPE": "U", "NORAD_CAT_ID": 35122, "ELEMENT_SET_NO": 999, "REV_AT_EPOCH": 64023, "BSTAR": 0.00025927535, "MEAN_MOTION_DOT": 4.53e-06, "MEAN_MOTION_DDOT": 0}, "tle": {"line1": "1 35122U 99025DLA 25357.77820555  .00000453  00000+0  25928-3 0  9999", "line2": "2 35122  98.6712  15.8646 0025705 127.0383 233.3147 14.14136172640239"}}, "geometry": {"type": "Point", "coordinates": [-53.19453028141139, 80.91633051892055]}}, {"type": "Feature", "properties": {"norad_id": 35123, "name": "FENGYUN 1C DEB", "group": "fengyun-1c-debris", "lat": 57.215454645681085, "lon": 170.2707956570398, "alt_km": 772.9470644698331, "timestamp": "2025-12-27T11:23:20.184909+00:00", "meta": {"OBJECT_NAME": "FENGYUN 1C DEB", "OBJECT_ID": "1999-025DLB", "EPOCH": "2025-12-26T18:15:29.262240", "MEAN_MOTION": 14.24252984, "ECCENTRICITY": 0.00494198, "INCLINATION": 99.1222, "RA_OF_ASC_NODE": 183.9761, "ARG_OF_PERICENTER": 36.5408, "MEAN_ANOMALY": 323.9124, "EPHEMERIS_TYPE": 0, "CLASSIFICATION_TYPE": "U", "NORAD_CAT_ID": 35123, "ELEMENT_SET_NO": 999, "REV_AT_EPOCH": 61273, "BSTAR": 0.00057166114, "MEAN_MOTION_DOT": 1.288e-05, "MEAN_MOTION_DDOT": 0}, "tle": {"line1": "1 35123U 99025DLB 25360.76075535  .00001288  00000+0  57166-3 0  9999", "line2": "2 35123  99.1222 183.9761 0049419  36.5408 323.9124 14.24252984612733"}}, "geometry": {"type": "Point", "coordinates": [170.2707956570398, 57.215454645681085]}}, {"type": "Feature", "properties": {"norad_id": 35125, "name": "FENGYUN 1C DEB", "group": "fengyun-1c-debris", "lat": -72.51668097172166, "lon": 164.4645464519753, "alt_km": 751.0946958194454, "timestamp": "2025-12-27T11:23:20.184919+00:00", "meta": {"OBJECT_NAME": "FENGYUN 1C DEB", "OBJECT_ID": "1999-025DLD", "EPOCH": "2025-12-26T07:23:40.170048", "MEAN_MOTION": 14.33225207, "ECCENTRICITY": 0.0052038, "INCLINATION": 98.216, "RA_OF_ASC_NODE": 10.6608, "ARG_OF_PERICENTER": 253.3778, "MEAN_ANOMALY": 106.169, "EPHEMERIS_TYPE": 0, "CLASSIFICATION_TYPE": "U", "NORAD_CAT_ID": 35125, "ELEMENT_SET_NO": 999, "REV_AT_EPOCH": 31476, "BSTAR": 0.001253, "MEAN_MOTION_DOT": 3.457e-05, "MEAN_MOTION_DDOT": 0}, "tle": {"line1": "1 35125U 99025DLD 25360.30810382  .00003457  00000+0  12530-2 0  9993", "line2": "2 35125  98.2160  10.6608 0052038 253.3778 106.1690 14.33225207314761"}}, "geometry": {"type": "Point", "coordinates": [164.4645464519753, -72.51668097172166]}}, {"type": "Feature", "properties": {"norad_id": 35130, "name": "FENGYUN 1C DEB", "group": "fengyun-1c-debris", "lat": -43.29806129415735, "lon": 19.811236651301364, "alt_km": 573.0042519501803, "timestamp": "2025-12-27T11:23:20.184929+00:00", "meta": {"OBJECT_NAME": "FENGYUN 1C DEB", "OBJECT_ID": "1999-025DLJ", "EPOCH": "2025-12-21T20:07:04.434528", "MEAN_MOTION": 15.01765435, "ECCENTRICITY": 0.00121415, "INCLINATION": 99.0319, "RA_OF_ASC_NODE": 201.8749, "ARG_OF_PERICENTER": 44.6238, "MEAN_ANOMALY": 315.5957, "EPHEMERIS_TYPE": 0, "CLASSIFICATION_TYPE": "U", "NORAD_CAT_ID": 35130, "ELEMENT_SET_NO": 999, "REV_AT_EPOCH": 65050, "BSTAR": 0.006798984, "MEAN_MOTION_DOT": 0.00089702, "MEAN_MOTION_DDOT": 0}, "tle": {"line1": "1 35130U 99025DLJ 25355.83824577  .00089702  00000+0  67990-2 0  9999", "line2": "2 35130  99.0319 201.8749 0012141  44.6238 315.5957 15.01765435650500"}}, "geometry": {"type": "Point", "coordinates": [19.811236651301364, -43.29806129415735]}}, {"type": "Feature", "properties": {"norad_id": 35135, "name": "FENGYUN 1C DEB", "group": "fengyun-1c-debris", "lat": 48.209008517376844, "lon": -160.42343122748704, "alt_km": 832.0063858664216, "timestamp": "2025-12-27T11:23:20.184939+00:00", "meta": {"OBJECT_NAME": "FENGYUN 1C DEB", "OBJECT_ID": "1999-025DLP", "EPOCH": "2025-12-24T11:52:08.678496", "MEAN_MOTION": 14.22564349, "ECCENTRICITY": 0.00809281, "INCLINATION": 98.5655, "RA_OF_ASC_NODE": 6.9722, "ARG_OF_PERICENTER": 249.8377, "MEAN_ANOMALY": 109.4083, "EPHEMERIS_TYPE": 0, "CLASSIFICATION_TYPE": "U", "NORAD_CAT_ID": 35135, "ELEMENT_SET_NO": 999, "REV_AT_EPOCH": 87991, "BSTAR": 0.00044436742, "MEAN_MOTION_DOT": 9.83e-06, "MEAN_MOTION_DDOT": 0}, "tle": {"line1": "1 35135U 99025DLP 25358.49454489  .00000983  00000+0  44437-3 0  9996", "line2": "2 35135  98.5655   6.9722 0080928 249.8377 109.4083 14.22564349879919"}}, "geometry": {"type": "Point", "coordinates": [-160.42343122748704, 48.209008517376844]}}, {"type": "Feature", "properties": {"norad_id": 35139, "name": "FENGYUN 1C DEB", "group": "fengyun-1c-debris", "lat": 31.96301214645715, "lon": -168.31554279608898, "alt_km": 833.4644426905479, "timestamp": "2025-12-27T11:23:20.184949+00:00", "meta": {"OBJECT_NAME": "FENGYUN 1C DEB", "OBJECT_ID": "1999-025DLT", "EPOCH": "2025-12-23T06:59:35.689920", "MEAN_MOTION": 14.21110814, "ECCENTRICITY": 0.00678971, "INCLINATION": 98.583, "RA_OF_ASC_NODE": 2.2123, "ARG_OF_PERICENTER": 266.3945, "MEAN_ANOMALY": 92.9465, "EPHEMERIS_TYPE": 0, "CLASSIFICATION_TYPE": "U", "NORAD_CAT_ID": 35139, "ELEMENT_SET_NO": 999, "REV_AT_EPOCH": 64303, "BSTAR": 0.0003440048, "MEAN_MOTION_DOT": 7.22e-06, "MEAN_MOTION_DDOT": 0}, "tle": {"line1": "1 35139U 99025DLT 25357.29138530  .00000722  00000+0  34400-3 0  9993", "line2": "2 35139  98.5830   2.2123 0067897 266.3945  92.9465 14.21110814643032"}}, "geometry": {"type": "Point", "coordinates": [-168.31554279608898, 31.96301214645715]}}, {"type": "Feature", "properties": {"norad_id": 35140, "name": "FENGYUN 1C DEB", "group": "fengyun-1c-debris", "lat": -65.66285784398193, "lon": 143.05658259895938, "alt_km": 658.0892767334326, "timestamp": "2025-12-27T11:23:20.184959+00:00", "meta": {"OBJECT_NAME": "FENGYUN 1C DEB", "OBJECT_ID": "1999-025DLU", "EPOCH": "2025-12-25T04:08:35.577600", "MEAN_MOTION": 14.21366146, "ECCENTRICITY": 0.02900907, "INCLINATION": 98.4461, "RA_OF_ASC_NODE": 340.0292, "ARG_OF_PERICENTER": 290.3158, "MEAN_ANOMALY": 66.7068, "EPHEMERIS_TYPE": 0, "CLASSIFICATION_TYPE": "U", "NORAD_CAT_ID": 35140, "ELEMENT_SET_NO": 999, "REV_AT_EPOCH": 87455, "BSTAR": 0.0002082318, "MEAN_MOTION_DOT": 6.44e-06, "MEAN_MOTION_DDOT": 0}, "tle": {"line1": "1 35140U 99025DLU 25359.17263400  .00000644  00000+0  20823-3 0  9996", "line2": "2 35140  98.4461 340.0292 0290090 290.3158  66.7068 14.21366146874551"}}, "geometry": {"type": "Point", "coordinates": [143.05658259895938, -65.66285784398193]}}, {"type": "Feature", "properties": {"norad_id": 35142, "name": "FENGYUN 1C DEB", "group": "fengyun-1c-debris", "lat": -10.912189280926704, "lon": -5.00702999986306, "alt_km": 1009.6075479859519, "timestamp": "2025-12-27T11:23:20.184969+00:00", "meta": {"OBJECT_NAME": "FENGYUN 1C DEB", "OBJECT_ID": "1999-025DLW", "EPOCH": "2025-12-22T11:17:59.858880", "MEAN_MOTION": 13.90511654, "ECCENTRICITY": 0.01079849, "INCLINATION": 99.0448, "RA_OF_ASC_NODE": 348.3644, "ARG_OF_PERICENTER": 187.5379, "MEAN_ANOMALY": 327.226, "EPHEMERIS_TYPE": 0, "CLASSIFICATION_TYPE": "U", "NORAD_CAT_ID": 35142, "ELEMENT_SET_NO": 999, "REV_AT_EPOCH": 85824, "BSTAR": 0.00012122945, "MEAN_MOTION_DOT": 1.15e-06, "MEAN_MOTION_DDOT": 0}, "tle": {"line1": "1 35142U 99025DLW 25356.47083170  .00000115  00000+0  12123-3 0  9999", "line2": "2 35142  99.0448 348.3644 0107984 187.5379 327.2260 13.90511654858246"}}, "geometry": {"type": "Point", "coordinates": [-5.00702999986306, -10.912189280926704]}}, {"type": "Feature", "properties": {"norad_id": 35144, "name": "FENGYUN 1C DEB", "group": "fengyun-1c-debris", "lat": -62.290118104841454, "lon": 134.48024756481672, "alt_km": 683.6677956808353, "timestamp": "2025-12-27T11:23:20.184979+00:00", "meta": {"OBJECT_NAME": "FENGYUN 1C DEB", "OBJECT_ID": "1999-025DLY", "EPOCH": "2025-12-25T18:32:40.900704", "MEAN_MOTION": 14.59485754, "ECCENTRICITY": 0.00270446, "INCLINATION": 98.6996, "RA_OF_ASC_NODE": 115.748, "ARG_OF_PERICENTER": 319.8084, "MEAN_ANOMALY": 40.1114, "EPHEMERIS_TYPE": 0, "CLASSIFICATION_TYPE": "U", "NORAD_CAT_ID": 35144, "ELEMENT_SET_NO": 999, "REV_AT_EPOCH": 65403, "BSTAR": 0.0026853326, "MEAN_MOTION_DOT": 0.00012776, "MEAN_MOTION_DDOT": 0}, "tle": {"line1": "1 35144U 99025DLY 25359.77269561  .00012776  00000+0  26853-2 0  9997", "line2": "2 35144  98.6996 115.7480 0027044 319.8084  40.1114 14.59485754654033"}}, "geometry": {"type": "Point", "coordinates": [134.48024756481672, -62.290118104841454]}}]}